{"type": "FeatureCollection", "features": [ {"type": "Feature", "properties": {"norad_id": 33799, "name": "COSMOS 2251 DEB", "group": "cosmos-2251-debris", "lat": 73.78399763141422, "lon": -165.32039298727815, "alt_km": 619.0926387004529, "timestamp": "2025-12-06T05:40:09.638006+00:00", "meta": {"OBJECT_NAME": "COSMOS 2251 DEB", "OBJECT_ID": "1993-036AQ", "EPOCH": "2025-12-05T00:35:37.276800", "MEAN_MOTION": 14.79383185, "ECCENTRICITY": 0.00243062, "INCLINATION": 74.032, "RA_OF_ASC_NODE": 96.9753, "ARG_OF_PERICENTER": 169.9326, "MEAN_ANOMALY": 313.6164, "EPHEMERIS_TYPE": 0, "CLASSIFICATION_TYPE": "U", "NORAD_CAT_ID": 33799, "ELEMENT_SET_NO": 999, "REV_AT_EPOCH": 88697, "BSTAR": 0.0028083535, "MEAN_MOTION_DOT": 0.00021076, "MEAN_MOTION_DDOT": 0}, "tle": {"line1": "1 33799U 93036AQ  25339.02473700  .00021076  00000+0  28084-2 0  9996", "line2": "2 33799  74.0320  96.9753 0024306 169.9326 313.6164 14.79383185886970"}}, "geometry": {"type": "Point", "coordinates": [-165.32039298727815, 73.78399763141422]}}, {"type": "Feature", "properties": {"norad_id": 33805, "name": "COSMOS 2251 DEB", "group": "cosmos-2251-debris", "lat": 13.093457979232362, "lon": -32.476730320074154, "alt_km": 734.057791383616, "timestamp": "2025-12-06T05:40:09.638017+00:00", "meta": {"OBJECT_NAME": "COSMOS 2251 DEB", "OBJECT_ID": "1993-036AW", "EPOCH": "2025-12-05T06:32:55.955040", "MEAN_MOTION": 14.57828913, "ECCENTRICITY": 0.00605132, "INCLINATION": 74.0305, "RA_OF_ASC_NODE": 325.5362, "ARG_OF_PERICENTER": 156.6138, "MEAN_ANOMALY": 203.78, "EPHEMERIS_TYPE": 0, "CLASSIFICATION_TYPE": "U", "NORAD_CAT_ID": 33805, "ELEMENT_SET_NO": 999, "REV_AT_EPOCH": 89118, "BSTAR": 0.0004412884, "MEAN_MOTION_DOT": 2.041e-05, "MEAN_MOTION_DDOT": 0}, "tle": {"line1": "1 33805U 93036AW  25339.27286985  .00002041  00000+0  44129-3 0  9998", "line2": "2 33805  74.0305 325.5362 0060513 156.6138 203.7800 14.57828913891186"}}, "geometry": {"type": "Point", "coordinates": [-32.476730320074154, 13.093457979232362]}}, {"type": "Feature", "properties": {"norad_id": 33811, "name": "COSMOS 2251 DEB", "group": "cosmos-2251-debris", "lat": -35.059456528017286, "lon": 147.88567404367402, "alt_km": 578.9506579302197, "timestamp": "2025-12-06T05:40:09.638027+00:00", "meta": {"OBJECT_NAME": "COSMOS 2251 DEB", "OBJECT_ID": "1993-036BC", "EPOCH": "2025-12-05T06:51:35.345664", "MEAN_MOTION": 15.04900945, "ECCENTRICITY": 0.0030853, "INCLINATION": 73.8373, "RA_OF_ASC_NODE": 318.1117, "ARG_OF_PERICENTER": 40.0671, "MEAN_ANOMALY": 69.7268, "EPHEMERIS_TYPE": 0, "CLASSIFICATION_TYPE": "U", "NORAD_CAT_ID": 33811, "ELEMENT_SET_NO": 999, "REV_AT_EPOCH": 89906, "BSTAR": 0.0019608091, "MEAN_MOTION_DOT": 0.00028122, "MEAN_MOTION_DDOT": 0}, "tle": {"line1": "1 33811U 93036BC  25339.28582576  .00028122  00000+0  19608-2 0  9992", "line2": "2 33811  73.8373 318.1117 0030853  40.0671  69.7268 15.04900945899065"}}, "geometry": {"type": "Point", "coordinates": [147.88567404367402, -35.059456528017286]}}, {"type": "Feature", "properties": {"norad_id": 33815, "name": "COSMOS 2251 DEB", "group": "cosmos-2251-debris", "lat": 9.277989932376062, "lon": -167.08587594770813, "alt_km": 521.506923707615, "timestamp": "2025-12-06T05:40:09.638038+00:00", "meta": {"OBJECT_NAME": "COSMOS 2251 DEB", "OBJECT_ID": "1993-036BG", "EPOCH": "2025-12-04T00:16:31.408896", "MEAN_MOTION": 15.14996402, "ECCENTRICITY": 0.00042403, "INCLINATION": 73.9554, "RA_OF_ASC_NODE": 194.871, "ARG_OF_PERICENTER": 242.2418, "MEAN_ANOMALY": 235.1772, "EPHEMERIS_TYPE": 0, "CLASSIFICATION_TYPE": "U", "NORAD_CAT_ID": 33815, "ELEMENT_SET_NO": 999, "REV_AT_EPOCH": 88238, "BSTAR": 0.011246177, "MEAN_MOTION_DOT": 0.00216461, "MEAN_MOTION_DDOT": 0}, "tle": {"line1": "1 33815U 93036BG  25338.01147464  .00216461  00000+0  11246-1 0  9993", "line2": "2 33815  73.9554 194.8710 0004240 242.2418 235.1772 15.14996402882385"}}, "geometry": {"type": "Point", "coordinates": [-167.08587594770813, 9.277989932376062]}}, {"type": "Feature", "properties": {"norad_id": 33816, "name": "COSMOS 2251 DEB", "group": "cosmos-2251-debris", "lat": 26.45904553229802, "lon": -71.84897479380396, "alt_km": 774.6948304595817, "timestamp": "2025-12-06T05:40:09.638048+00:00", "meta": {"OBJECT_NAME": "COSMOS 2251 DEB", "OBJECT_ID": "1993-036BH", "EPOCH": "2025-12-04T18:11:59.280000", "MEAN_MOTION": 13.8176558, "ECCENTRICITY": 0.02652048, "INCLINATION": 73.8939, "RA_OF_ASC_NODE": 118.9228, "ARG_OF_PERICENTER": 133.4018, "MEAN_ANOMALY": 228.9523, "EPHEMERIS_TYPE": 0, "CLASSIFICATION_TYPE": "U", "NORAD_CAT_ID": 33816, "ELEMENT_SET_NO": 999, "REV_AT_EPOCH": 84563, "BSTAR": 0.00099483568, "MEAN_MOTION_DOT": 1.369e-05, "MEAN_MOTION_DDOT": 0}, "tle": {"line1": "1 33816U 93036BH  25338.75832500  .00001369  00000+0  99484-3 0  9998", "line2": "2 33816  73.8939 118.9228 0265204 133.4018 228.9523 13.81765580845633"}}, "geometry": {"type": "Point", "coordinates": [-71.84897479380396, 26.45904553229802]}}, {"type": "Feature", "properties": {"norad_id": 33818, "name": "COSMOS 2251 DEB", "group": "cosmos-2251-debris", "lat": 8.722623707120762, "lon": -177.81266466060924, "alt_km": 551.1367744737845, "timestamp": "2025-12-06T05:40:09.638059+00:00", "meta": {"OBJECT_NAME": "COSMOS 2251 DEB", "OBJECT_ID": "1993-036BK", "EPOCH": "2025-12-05T06:20:28.076640", "MEAN_MOTION": 15.1165843, "ECCENTRICITY": 0.00287999, "INCLINATION": 74.0748, "RA_OF_ASC_NODE": 181.6825, "ARG_OF_PERICENTER": 172.9698, "MEAN_ANOMALY": 308.7661, "EPHEMERIS_TYPE": 0, "CLASSIFICATION_TYPE": "U", "NORAD_CAT_ID": 33818, "ELEMENT_SET_NO": 999, "REV_AT_EPOCH": 89749, "BSTAR": 0.0034198404, "MEAN_MOTION_DOT": 0.00059199, "MEAN_MOTION_DDOT": 0}, "tle": {"line1": "1 33818U 93036BK  25339.26421385  .00059199  00000+0  34198-2 0  9996", "line2": "2 33818  74.0748 181.6825 0028799 172.9698 308.7661 15.11658430897495"}}, "geometry": {"type": "Point", "coordinates": [-177.81266466060924, 8.722623707120762]}}, {"type": "Feature", "properties": {"norad_id": 33819, "name": "COSMOS 2251 DEB", "group": "cosmos-2251-debris", "lat": -22.53285526809532, "lon": 48.36467341577415, "alt_km": 819.2894642915498, "timestamp": "2025-12-06T05:40:09.638069+00:00", "meta": {"OBJECT_NAME": "COSMOS 2251 DEB", "OBJECT_ID": "1993-036BL", "EPOCH": "2025-12-05T02:27:44.066304", "MEAN_MOTION": 14.32182214, "ECCENTRICITY": 0.0088776, "INCLINATION": 74.1797, "RA_OF_ASC_NODE": 223.6586, "ARG_OF_PERICENTER": 87.2948, "MEAN_ANOMALY": 32.691, "EPHEMERIS_TYPE": 0, "CLASSIFICATION_TYPE": "U", "NORAD_CAT_ID": 33819, "ELEMENT_SET_NO": 999, "REV_AT_EPOCH": 87386, "BSTAR": 0.0014075368, "MEAN_MOTION_DOT": 3.937e-05, "MEAN_MOTION_DDOT": 0}, "tle": {"line1": "1 33819U 93036BL  25339.10259336  .00003937  00000+0  14075-2 0  9996", "line2": "2 33819  74.1797 223.6586 0088776  87.2948  32.6910 14.32182214873868"}}, "geometry": {"type": "Point", "coordinates": [48.36467341577415, -22.53285526809532]}}, {"type": "Feature", "properties": {"norad_id": 33821, "name": "COSMOS 2251 DEB", "group": "cosmos-2251-debris", "lat": -47.13067065826064, "lon": -5.449081654249327, "alt_km": 468.7551286574362, "timestamp": "2025-12-06T05:40:09.638081+00:00", "meta": {"OBJECT_NAME": "COSMOS 2251 DEB", "OBJECT_ID": "1993-036BN", "EPOCH": "2025-12-04T22:44:44.011104", "MEAN_MOTION": 15.24617019, "ECCENTRICITY": 0.0053892, "INCLINATION": 74.0288, "RA_OF_ASC_NODE": 159.3002, "ARG_OF_PERICENTER": 194.8404, "MEAN_ANOMALY": 165.1218, "EPHEMERIS_TYPE": 0, "CLASSIFICATION_TYPE": "U", "NORAD_CAT_ID": 33821, "ELEMENT_SET_NO": 999, "REV_AT_EPOCH": 74882, "BSTAR": 0.0018869, "MEAN_MOTION_DOT": 0.000488, "MEAN_MOTION_DDOT": 0}, "tle": {"line1": "1 33821U 93036BN  25338.94773161  .00048800  00000+0  18869-2 0  9990", "line2": "2 33821  74.0288 159.3002 0053892 194.8404 165.1218 15.24617019748824"}}, "geometry": {"type": "Point", "coordinates": [-5.449081654249327, -47.13067065826064]}}, {"type": "Feature", "properties": {"norad_id": 33822, "name": "COSMOS 2251 DEB", "group": "cosmos-2251-debris", "lat": 59.762209403805315, "lon": -4.175945234318324, "alt_km": 923.4474363372683, "timestamp": "2025-12-06T05:40:09.638092+00:00", "meta": {"OBJECT_NAME": "COSMOS 2251 DEB", "OBJECT_ID": "1993-036BP", "EPOCH": "2025-12-05T02:30:53.227872", "MEAN_MOTION": 14.13014768, "ECCENTRICITY": 0.01539376, "INCLINATION": 74.07, "RA_OF_ASC_NODE": 207.1593, "ARG_OF_PERICENTER": 255.2667, "MEAN_ANOMALY": 228.7187, "EPHEMERIS_TYPE": 0, "CLASSIFICATION_TYPE": "U", "NORAD_CAT_ID": 33822, "ELEMENT_SET_NO": 999, "REV_AT_EPOCH": 85946, "BSTAR": 0.0026550755, "MEAN_MOTION_DOT": 5.521e-05, "MEAN_MOTION_DDOT": 0}, "tle": {"line1": "1 33822U 93036BP  25339.10478273  .00005521  00000+0  26551-2 0  9996", "line2": "2 33822  74.0700 207.1593 0153937 255.2667 228.7187 14.13014768859468"}}, "geometry": {"type": "Point", "coordinates": [-4.175945234318324, 59.762209403805315]}}, {"type": "Feature", "properties": {"norad_id": 33823, "name": "COSMOS 2251 DEB", "group": "cosmos-2251-debris", "lat": -73.71552194108833, "lon": 64.7614827817554, "alt_km": 759.8453657300361, "timestamp": "2025-12-06T05:40:09.638102+00:00", "meta": {"OBJECT_NAME": "COSMOS 2251 DEB", "OBJECT_ID": "1993-036BQ", "EPOCH": "2025-12-05T06:57:40.969728", "MEAN_MOTION": 13.98921806, "ECCENTRICITY": 0.02092509, "INCLINATION": 73.8087, "RA_OF_ASC_NODE": 162.3861, "ARG_OF_PERICENTER": 288.7453, "MEAN_ANOMALY": 257.1484, "EPHEMERIS_TYPE": 0, "CLASSIFICATION_TYPE": "U", "NORAD_CAT_ID": 33823, "ELEMENT_SET_NO": 999, "REV_AT_EPOCH": 85505, "BSTAR": 0.0011945628, "MEAN_MOTION_DOT": 2.053e-05, "MEAN_MOTION_DDOT": 0}, "tle": {"line1": "1 33823U 93036BQ  25339.29005752  .00002053  00000+0  11946-2 0  9994", "line2": "2 33823  73.8087 162.3861 0209250 288.7453 257.1484 13.98921806855057"}}, "geometry": {"type": "Point", "coordinates": [64.7614827817554, -73.71552194108833]}}]}